STARLINK-11407 [DTC]    
1 61939C 24209A   26110.34562500 -.00007628  00000+0 -62859-4 0  1103
2 61939  53.1562 165.6902 0001516  56.0480 299.1680 15.69702954    11
STARLINK-11337 [DTC]    
1 61940C 24209B   26110.32340278 -.00016809  00000+0 -13843-3 0  1108
2 61940  53.1566 165.7427 0001321  65.2536 192.0190 15.69723020    12
STARLINK-11353 [DTC]    
1 61941C 24209C   26110.37548611  .00022738  00000+0  18745-3 0  1107
2 61941  53.1561 165.4297 0001152  88.4657 131.0720 15.69677741    13
STARLINK-11320 [DTC]    
1 61942C 24209D   26110.36923611 -.00057203  00000+0 -47083-3 0  1108
2 61942  53.1562 166.1387 0001215 103.7348 107.5651 15.69756727    14
STARLINK-11425 [DTC]    
1 61943C 24209E   26110.30604167 -.00035090  00000+0 -28892-3 0  1102
2 61943  53.1562 166.3928 0000992  93.6708 148.0661 15.69738156    13
STARLINK-11422 [DTC]    
1 61944C 24209F   26110.35465278 -.00040535  00000+0 -33365-3 0  1107
2 61944  53.1564 166.0961 0001189 106.8545  77.4653 15.69747295    15
STARLINK-11421 [DTC]    
1 61945C 24209G   26110.32687500 -.00044720  00000+0 -36826-3 0  1104
2 61945  53.1568 166.1760 0001314  71.6184 343.3964 15.69739148    14
STARLINK-11410 [DTC]    
1 61946C 24209H   26110.29631944 -.00022124  00000+0 -18221-3 0  1105
2 61946  53.1567 166.2687 0001290  70.3180 199.6732 15.69724567    12
STARLINK-11390 [DTC]    
1 61947C 24209J   26110.31645833 -.00030416  00000+0 -25046-3 0  1107
2 61947  53.1567 166.1140 0001102 104.4337 307.1500 15.69732426    13
STARLINK-11414 [DTC]    
1 61948C 24209K   26110.37340278  .00000135  00000+0  11146-5 0  1100
2 61948  53.1564 165.6058 0001636  49.0077  75.5353 15.69699320    17
STARLINK-11424 [DTC]    
1 61949C 24209L   26110.28381944 -.00046173  00000+0 -38005-3 0  1101
2 61949  53.1566 166.1041 0001039 101.4293 208.8105 15.69750653    11
STARLINK-11423 [DTC]    
1 61950C 24209M   26110.37201389 -.00008551  00000+0 -70447-4 0  1102
2 61950  53.1567 165.7865 0001543  48.4905 344.9728 15.69709329    10
STARLINK-11395 [DTC]    
1 61951C 24209N   26110.31020833 -.00069864  00000+0 -57494-3 0  1100
2 61951  53.1565 166.0300 0001144 106.6721 325.0300 15.69767496    12
STARLINK-32572          
1 61952C 24209P   26110.31993056  .00015123  00000+0  50971-3 0  1107
2 61952  53.1579 308.8348 0001110  86.9393 269.0631 15.30184233    18
STARLINK-32585          
1 61953C 24209Q   26110.35534722  .00014953  00000+0  50399-3 0  1107
2 61953  53.1587 309.0792 0001312  96.7085 245.1269 15.30182436    10
STARLINK-32574          
1 61954C 24209R   26110.30465278 -.00026195  00000+0 -88285-3 0  1100
2 61954  53.1573 309.4295 0001256  93.9656 270.2840 15.30204750    16
STARLINK-32583          
1 61955C 24209S   26110.29840278 -.00047690  00000+0 -16072-2 0  1103
2 61955  53.1597 309.2725 0001056  84.9609 337.8952 15.30219122    18
STARLINK-32273          
1 61956C 24209T   26110.33937500  .00010479  00000+0  35323-3 0  1108
2 61956  53.1584 308.7964 0001212 101.0246 333.0942 15.30180313    12
STARLINK-32359          
1 61957C 24209U   26110.31437500  .00009526  00000+0  32119-3 0  1103
2 61957  53.1598 309.1305 0001295  90.6078  95.1967 15.30172319    19
STARLINK-32566          
1 61958C 24209V   26110.31159722 -.00024590  00000+0 -82888-3 0  1109
2 61958  53.1584 308.8937 0001377  97.0854 201.3670 15.30199049    17
STARLINK-32499          
1 61959C 24210A   26110.33104167  .00002148  00000+0  77834-4 0  1106
2 61959  43.0029 304.2609 0001713 262.1818  79.2019 15.27565345    16
STARLINK-32372          
1 61960C 24210B   26110.36437500  .00015564  00000+0  56373-3 0  1101
2 61960  43.0013 304.1731 0001667 262.6391 219.7872 15.27571090    17
STARLINK-32452          
1 61961C 24210C   26110.36715278  .00028645  00000+0  10381-2 0  1105
2 61961  43.0009 297.3636 0001138 267.7837 175.1303 15.27547639    10
STARLINK-32458          
1 61962C 24210D   26110.30743056  .00009505  00000+0  34453-3 0  1106
2 61962  43.0003 290.4490 0001620 267.8503 342.4152 15.27550115    18
STARLINK-32487          
1 61963C 24210E   26110.30604167 -.00009114  00000+0 -33031-3 0  1105
2 61963  43.0010 304.8826 0001502 263.2274  95.3590 15.27562487    19
STARLINK-32513          
1 61964C 24210F   26110.31298611  .00014556  00000+0  52725-3 0  1105
2 61964  43.0009 290.2666 0001487 270.5468  73.9592 15.27569262    18
STARLINK-32514          
1 61965C 24210G   26110.34006944  .00016071  00000+0  58220-3 0  1105
2 61965  43.0014 297.5667 0001431 272.3244   0.2314 15.27564335    18
STARLINK-32498          
1 61966C 24210H   26110.35743056  .00032060  00000+0  11615-2 0  1101
2 61966  43.0017 289.8293 0001761 269.6299  37.3987 15.27555291    14
STARLINK-32518          
1 61967C 24210J   26110.33868056  .00014009  00000+0  50764-3 0  1100
2 61967  43.0029 297.7229 0001935 262.0678 221.5403 15.27555168    19
STARLINK-32471          
1 61968C 24210K   26110.28590278 -.00009979  00000+0 -36154-3 0  1102
2 61968  43.0004 297.7428 0001425 271.8930 119.0289 15.27573996    19
STARLINK-32450          
1 61969C 24210L   26110.29631944 -.00003684  00000+0 -13345-3 0  1104
2 61969  43.0006 297.7304 0001455 272.8845 154.1671 15.27575342    16
STARLINK-32613          
1 61970C 24210M   26110.32895833  .00002133  00000+0  77279-4 0  1102
2 61970  43.0029 304.9931 0001639 272.6158 113.0697 15.27568821    15
STARLINK-32610          
1 61971C 24210N   26110.29979167 -.00018209  00000+0 -65976-3 0  1105
2 61971  43.0026 305.0537 0001457 272.6542 354.9037 15.27576376    10
STARLINK-32612          
1 61972C 24210P   26110.29215278 -.00019360  00000+0 -70151-3 0  1102
2 61972  43.0029 305.1481 0001499 263.6457 300.6423 15.27575158    18
STARLINK-32601          
1 61973C 24210Q   26110.38451389  .00023959  00000+0  86816-3 0  1100
2 61973  43.0021 304.0063 0001634 260.1698 354.3905 15.27552868    19
STARLINK-32593          
1 61974C 24210R   26110.29909722 -.00015430  00000+0 -55906-3 0  1103
2 61974  43.0032 305.2490 0001506 262.1165 283.8065 15.27575089    11
STARLINK-32586          
1 61975C 24210S   26110.29701389 -.00014496  00000+0 -52558-3 0  1104
2 61975  43.0007 304.8840 0001511 281.2870  48.7711 15.27550827    18
STARLINK-32611          
1 61976C 24210T   26110.33659722  .00002361  00000+0  85553-4 0  1101
2 61976  43.0005 304.6107 0001544 261.3800 307.8854 15.27562861    17
STARLINK-32607          
1 61977C 24210U   26110.29145833 -.00024719  00000+0 -89606-3 0  1105
2 61977  43.0022 305.0478 0001492 263.8031 339.1175 15.27563404    16
STARLINK-32606          
1 61978C 24210V   26110.35812500  .00016193  00000+0  58672-3 0  1109
2 61978  43.0016 304.2823 0001713 259.9544 152.7246 15.27557449    16
STARLINK-32578          
1 61979C 24210W   26110.37062500  .00019895  00000+0  72080-3 0  1100
2 61979  43.0006 304.2335 0001568 257.4229 217.0062 15.27559659    11
STARLINK-32517          
1 61980C 24210X   26110.38034722  .00024774  00000+0  89743-3 0  1104
2 61980  43.0030 304.7539 0001474 268.4871  18.9128 15.27561262    16
STARLINK-32522          
1 61981C 24210Y   26110.32340278 -.00003143  00000+0 -11390-3 0  1107
2 61981  43.0009 304.6344 0001564 260.3637 257.4798 15.27560427    12
STARLINK-32560          
1 61982C 24210Z   26110.28520833 -.00016961  00000+0 -61457-3 0  1101
2 61982  43.0013 304.6658 0001621 266.0984 119.2696 15.27574291    14
STARLINK-11433 [DTC]    
1 62008C 24213A   26110.32548611  .00025141  00000+0  20718-3 0  1106
2 62008  53.1568 195.8389 0001182  67.1076  49.5883 15.69687343    18
STARLINK-11262 [DTC]    
1 62009C 24213B   26110.35256944  .00008380  00000+0  69026-4 0  1107
2 62009  53.1569 196.1638 0000697  92.3200 315.5959 15.69707488    13
STARLINK-11326 [DTC]    
1 62010C 24213C   26110.30673611  .00034361  00000+0  28288-3 0  1100
2 62010  53.1568 196.1574 0001108 103.0148 156.6819 15.69705765    17
STARLINK-11330 [DTC]    
1 62011C 24213D   26110.28034722  .00044554  00000+0  36710-3 0  1106
2 62011  53.1567 196.4603 0001212  78.1404 309.1812 15.69680633    10
STARLINK-11363 [DTC]    
1 62012C 24213E   26110.28798611  .00046162  00000+0  37995-3 0  1104
2 62012  53.1570 196.1392 0001134 109.1569  99.9954 15.69705184    17
STARLINK-11377 [DTC]    
1 62013C 24213F   26110.29840278  .00031844  00000+0  26213-3 0  1105
2 62013  53.1571 196.0358 0001066 111.9703 183.8100 15.69710178    10
STARLINK-11385 [DTC]    
1 62014C 24213G   26110.31576389  .00035408  00000+0  29114-3 0  1101
2 62014  53.1563 196.2298 0001259  93.5678 161.6445 15.69735215    12
STARLINK-11396 [DTC]    
1 62015C 24213H   26110.34493056  .00018541  00000+0  15281-3 0  1103
2 62015  53.1567 195.6854 0001397  55.0079 199.3806 15.69685975    15
STARLINK-11393 [DTC]    
1 62016C 24213J   26110.36020833 -.00000102  00000+0 -84150-6 0  1105
2 62016  53.1568 195.5559 0001386  53.6196 314.8693 15.69704114    15
STARLINK-11343 [DTC]    
1 62017C 24213K   26110.38312500 -.00008854  00000+0 -72888-4 0  1108
2 62017  53.1567 195.8419 0001066  99.6018 204.2654 15.69729248    15
STARLINK-11411 [DTC]    
1 62018C 24213L   26110.36993056 -.00005021  00000+0 -41358-4 0  1109
2 62018  53.1568 195.7947 0002460  80.6973 204.0719 15.69708309    16
STARLINK-11404 [DTC]    
1 62019C 24213M   26110.38520833 -.00007047  00000+0 -58058-4 0  1106
2 62019  53.1569 196.0556 0001194  71.9895 132.7573 15.69709150    17
STARLINK-11378 [DTC]    
1 62020C 24213N   26110.37479167 -.00000987  00000+0 -81263-5 0  1101
2 62020  53.1569 195.4271 0001190 116.8227   1.8232 15.69721752    10
STARLINK-32520          
1 62021C 24213P   26110.36715278 -.00027804  00000+0 -93705-3 0  1106
2 62021  53.1574 334.8532 0001129 107.7678 170.8666 15.30206961    13
STARLINK-32539          
1 62022C 24213Q   26110.36854167  .00012859  00000+0  43342-3 0  1102
2 62022  53.1590 322.0136 0001203  98.0835 121.6245 15.30182077    19
